start=new Date('2021-09-20T00:00:00.000Z').valueOf();
sats=[{"ELEMENT_SET_NO":"999","CENTER_NAME":"EARTH","ARG_OF_PERICENTER":"94.7991","INCLINATION":"53.0559","MEAN_ELEMENT_THEORY":"SGP4","ECCENTRICITY":"0.00014460","MEAN_MOTION":"15.06399739","PERIOD":"95.592","EPOCH":"2021-09-19T19:19:58.198944","TIME_SYSTEM":"UTC","FILE":"3120378","LAUNCH_DATE":"2021-03-11","APOAPSIS":"548.216","REF_FRAME":"TEME","MEAN_MOTION_DOT":"0.00001540","COUNTRY_CODE":"US","TLE_LINE1":"1 47836U 21018BB  21262.80553471  .00001540  00000-0  12229-3 0  9995","CLASSIFICATION_TYPE":"U","EPHEMERIS_TYPE":"0","REV_AT_EPOCH":"3063","OBJECT_NAME":"STARLINK-2426","TLE_LINE2":"2 47836  53.0559  17.4172 0001446  94.7991 265.3163 15.06399739 30633","RCS_SIZE":"LARGE","OBJECT_ID":"2021-018BB","PERIAPSIS":"546.213","SITE":"AFETR","BSTAR":"0.00012229000000","SEMIMAJOR_AXIS":"6925.349","RA_OF_ASC_NODE":"17.4172","OBJECT_TYPE":"PAYLOAD","NORAD_CAT_ID":"47836","MEAN_ANOMALY":"265.3163","MEAN_MOTION_DDOT":"0.0000000000000","GP_ID":"185056882","DECAY_DATE":null},{"CENTER_NAME":"EARTH","ARG_OF_PERICENTER":"102.1358","ELEMENT_SET_NO":"999","MEAN_MOTION":"15.06401189","ECCENTRICITY":"0.00012080","INCLINATION":"53.0592","MEAN_ELEMENT_THEORY":"SGP4","TIME_SYSTEM":"UTC","PERIOD":"95.592","EPOCH":"2021-09-19T13:23:02.164416","REF_FRAME":"TEME","MEAN_MOTION_DOT":"-0.00000298","APOAPSIS":"548.046","LAUNCH_DATE":"2021-03-11","FILE":"3120172","TLE_LINE1":"1 47837U 21018BC  21262.55766394 -.00000298  00000-0 -11395-5 0  9994","COUNTRY_CODE":"US","REV_AT_EPOCH":"3054","EPHEMERIS_TYPE":"0","CLASSIFICATION_TYPE":"U","SITE":"AFETR","RA_OF_ASC_NODE":"358.5334","SEMIMAJOR_AXIS":"6925.345","BSTAR":"-0.00000113950000","RCS_SIZE":"LARGE","TLE_LINE2":"2 47837  53.0592 358.5334 0001208 102.1358 257.9767 15.06401189 30547","PERIAPSIS":"546.373","OBJECT_ID":"2021-018BC","OBJECT_NAME":"STARLINK-2427","GP_ID":"185030665","MEAN_MOTION_DDOT":"0.0000000000000","DECAY_DATE":null,"MEAN_ANOMALY":"257.9767","NORAD_CAT_ID":"47837","OBJECT_TYPE":"PAYLOAD"},{"TLE_LINE1":"1 47838U 21018BD  21262.70325568  .00000678  00000-0  64432-4 0  9995","COUNTRY_CODE":"US","EPHEMERIS_TYPE":"0","REV_AT_EPOCH":"3061","CLASSIFICATION_TYPE":"U","PERIAPSIS":"546.462","OBJECT_ID":"2021-018BD","TLE_LINE2":"2 47838  53.0584  17.8956 0001094  95.2894 264.8220 15.06397995 30612","RCS_SIZE":"LARGE","SITE":"AFETR","SEMIMAJOR_AXIS":"6925.355","RA_OF_ASC_NODE":"17.8956","BSTAR":"0.00006443200000","OBJECT_NAME":"STARLINK-2429","MEAN_ANOMALY":"264.8220","DECAY_DATE":null,"MEAN_MOTION_DDOT":"0.0000000000000","GP_ID":"185057884","NORAD_CAT_ID":"47838","OBJECT_TYPE":"PAYLOAD","ARG_OF_PERICENTER":"95.2894","CENTER_NAME":"EARTH","ELEMENT_SET_NO":"999","MEAN_MOTION":"15.06397995","MEAN_ELEMENT_THEORY":"SGP4","INCLINATION":"53.0584","ECCENTRICITY":"0.00010940","EPOCH":"2021-09-19T16:52:41.290752","PERIOD":"95.592","TIME_SYSTEM":"UTC","APOAPSIS":"547.977","MEAN_MOTION_DOT":"0.00000678","REF_FRAME":"TEME","FILE":"3120378","LAUNCH_DATE":"2021-03-11"},{"PERIAPSIS":"481.243","OBJECT_ID":"2021-018BE","TLE_LINE2":"2 47839  53.0569 356.5866 0001388  71.2951 288.8198 15.27866033 30902","RCS_SIZE":"LARGE","SITE":"AFETR","SEMIMAJOR_AXIS":"6860.330","RA_OF_ASC_NODE":"356.5866","BSTAR":"0.00006845400000","OBJECT_NAME":"STARLINK-2431","MEAN_ANOMALY":"288.8198","DECAY_DATE":null,"GP_ID":"185025590","MEAN_MOTION_DDOT":"0.0000000000000","NORAD_CAT_ID":"47839","OBJECT_TYPE":"PAYLOAD","TLE_LINE1":"1 47839U 21018BE  21262.43992412  .00001537  00000-0  68454-4 0  9997","COUNTRY_CODE":"US","EPHEMERIS_TYPE":"0","REV_AT_EPOCH":"3090","CLASSIFICATION_TYPE":"U","EPOCH":"2021-09-19T10:33:29.443968","PERIOD":"94.249","TIME_SYSTEM":"UTC","APOAPSIS":"483.147","MEAN_MOTION_DOT":"0.00001537","REF_FRAME":"TEME","FILE":"3120015","LAUNCH_DATE":"2021-03-11","ARG_OF_PERICENTER":"71.2951","CENTER_NAME":"EARTH","ELEMENT_SET_NO":"999","MEAN_MOTION":"15.27866033","MEAN_ELEMENT_THEORY":"SGP4","INCLINATION":"53.0569","ECCENTRICITY":"0.00013880"},{"OBJECT_NAME":"STARLINK-2432","RCS_SIZE":"LARGE","TLE_LINE2":"2 47840  53.0548 357.7094 0000871 134.0319 226.0742 15.06395556 30902","PERIAPSIS":"546.624","OBJECT_ID":"2021-018BF","SITE":"AFETR","SEMIMAJOR_AXIS":"6925.362","BSTAR":"-0.00000869130000","RA_OF_ASC_NODE":"357.7094","NORAD_CAT_ID":"47840","OBJECT_TYPE":"PAYLOAD","MEAN_ANOMALY":"226.0742","GP_ID":"185056383","MEAN_MOTION_DDOT":"0.0000000000000","DECAY_DATE":null,"COUNTRY_CODE":"US","TLE_LINE1":"1 47840U 21018BF  21262.74195965 -.00000411  00000-0 -86913-5 0  9994","CLASSIFICATION_TYPE":"U","EPHEMERIS_TYPE":"0","REV_AT_EPOCH":"3090","PERIOD":"95.592","EPOCH":"2021-09-19T17:48:25.313760","TIME_SYSTEM":"UTC","FILE":"3120378","LAUNCH_DATE":"2021-03-11","APOAPSIS":"547.830","REF_FRAME":"TEME","MEAN_MOTION_DOT":"-0.00000411","ELEMENT_SET_NO":"999","ARG_OF_PERICENTER":"134.0319","CENTER_NAME":"EARTH","INCLINATION":"53.0548","MEAN_ELEMENT_THEORY":"SGP4","ECCENTRICITY":"0.00008710","MEAN_MOTION":"15.06395556"},{"OBJECT_NAME":"STARLINK-2433","SITE":"AFETR","RA_OF_ASC_NODE":"358.0186","SEMIMAJOR_AXIS":"6925.357","BSTAR":"-0.00001013800000","TLE_LINE2":"2 47841  53.0564 358.0186 0001325 122.6027 237.5090 15.06397371 30899","RCS_SIZE":"LARGE","PERIAPSIS":"546.304","OBJECT_ID":"2021-018BG","NORAD_CAT_ID":"47841","OBJECT_TYPE":"PAYLOAD","MEAN_MOTION_DDOT":"0.0000000000000","GP_ID":"185057632","DECAY_DATE":null,"MEAN_ANOMALY":"237.5090","COUNTRY_CODE":"US","TLE_LINE1":"1 47841U 21018BG  21262.67192966 -.00000432  00000-0 -10138-4 0  9993","CLASSIFICATION_TYPE":"U","REV_AT_EPOCH":"3089","EPHEMERIS_TYPE":"0","TIME_SYSTEM":"UTC","PERIOD":"95.592","EPOCH":"2021-09-19T16:07:34.722624","LAUNCH_DATE":"2021-03-11","FILE":"3120378","REF_FRAME":"TEME","MEAN_MOTION_DOT":"-0.00000432","APOAPSIS":"548.139","ELEMENT_SET_NO":"999","CENTER_NAME":"EARTH","ARG_OF_PERICENTER":"122.6027","ECCENTRICITY":"0.00013250","INCLINATION":"53.0564","MEAN_ELEMENT_THEORY":"SGP4","MEAN_MOTION":"15.06397371"},{"FILE":"3120378","LAUNCH_DATE":"2021-03-11","APOAPSIS":"548.042","MEAN_MOTION_DOT":"-0.00008971","REF_FRAME":"TEME","EPOCH":"2021-09-19T17:23:12.352128","PERIOD":"95.590","TIME_SYSTEM":"UTC","MEAN_ELEMENT_THEORY":"SGP4","INCLINATION":"53.0572","ECCENTRICITY":"0.00013540","MEAN_MOTION":"15.06435621","ELEMENT_SET_NO":"999","CENTER_NAME":"EARTH","ARG_OF_PERICENTER":"111.8797","NORAD_CAT_ID":"47842","OBJECT_TYPE":"PAYLOAD","MEAN_ANOMALY":"248.2336","DECAY_DATE":null,"MEAN_MOTION_DDOT":"0.0000000000000","GP_ID":"185057385","OBJECT_NAME":"STARLINK-2434","OBJECT_ID":"2021-018BH","PERIAPSIS":"546.167","RCS_SIZE":"LARGE","TLE_LINE2":"2 47842  53.0572  27.7908 0001354 111.8797 248.2336 15.06435621 30531","SEMIMAJOR_AXIS":"6925.239","SITE":"AFETR","BSTAR":"-0.00058358000000","RA_OF_ASC_NODE":"27.7908","CLASSIFICATION_TYPE":"U","EPHEMERIS_TYPE":"0","REV_AT_EPOCH":"3053","COUNTRY_CODE":"US","TLE_LINE1":"1 47842U 21018BH  21262.72444852 -.00008971  00000-0 -58358-3 0  9995"},{"TIME_SYSTEM":"UTC","PERIOD":"95.593","EPOCH":"2021-09-19T18:19:37.704576","REF_FRAME":"TEME","MEAN_MOTION_DOT":"-0.00000761","APOAPSIS":"548.200","LAUNCH_DATE":"2021-03-11","FILE":"3120378","ARG_OF_PERICENTER":"90.7440","CENTER_NAME":"EARTH","ELEMENT_SET_NO":"999","MEAN_MOTION":"15.06391400","ECCENTRICITY":"0.00013860","INCLINATION":"53.0575","MEAN_ELEMENT_THEORY":"SGP4","SEMIMAJOR_AXIS":"6925.375","SITE":"AFETR","BSTAR":"-0.00003218600000","RA_OF_ASC_NODE":"22.6163","RCS_SIZE":"LARGE","TLE_LINE2":"2 47843  53.0575  22.6163 0001386  90.7440 269.3708 15.06391400 30574","OBJECT_ID":"2021-018BJ","PERIAPSIS":"546.280","OBJECT_NAME":"STARLINK-2435","MEAN_MOTION_DDOT":"0.0000000000000","GP_ID":"185056636","DECAY_DATE":null,"MEAN_ANOMALY":"269.3708","NORAD_CAT_ID":"47843","OBJECT_TYPE":"PAYLOAD","TLE_LINE1":"1 47843U 21018BJ  21262.76363084 -.00000761  00000-0 -32186-4 0  9998","COUNTRY_CODE":"US","REV_AT_EPOCH":"3057","EPHEMERIS_TYPE":"0","CLASSIFICATION_TYPE":"U"},{"PERIOD":"95.592","EPOCH":"2021-09-19T15:06:32.135904","TIME_SYSTEM":"UTC","FILE":"3120378","LAUNCH_DATE":"2021-03-11","APOAPSIS":"548.554","REF_FRAME":"TEME","MEAN_MOTION_DOT":"0.00000379","ELEMENT_SET_NO":"999","CENTER_NAME":"EARTH","ARG_OF_PERICENTER":"92.9568","INCLINATION":"53.0588","MEAN_ELEMENT_THEORY":"SGP4","ECCENTRICITY":"0.00019190","MEAN_MOTION":"15.06396280","OBJECT_NAME":"STARLINK-2446","TLE_LINE2":"2 47844  53.0588  18.2143 0001919  92.9568 267.1641 15.06396280 30602","RCS_SIZE":"LARGE","PERIAPSIS":"545.896","OBJECT_ID":"2021-018BK","SITE":"AFETR","SEMIMAJOR_AXIS":"6925.360","BSTAR":"0.00004436400000","RA_OF_ASC_NODE":"18.2143","OBJECT_TYPE":"PAYLOAD","NORAD_CAT_ID":"47844","MEAN_ANOMALY":"267.1641","GP_ID":"185056883","MEAN_MOTION_DDOT":"0.0000000000000","DECAY_DATE":null,"COUNTRY_CODE":"US","TLE_LINE1":"1 47844U 21018BK  21262.62953861  .00000379  00000-0  44364-4 0  9996","CLASSIFICATION_TYPE":"U","EPHEMERIS_TYPE":"0","REV_AT_EPOCH":"3060"},{"ARG_OF_PERICENTER":"128.4325","CENTER_NAME":"EARTH","ELEMENT_SET_NO":"999","MEAN_MOTION":"15.06396841","MEAN_ELEMENT_THEORY":"SGP4","INCLINATION":"53.0563","ECCENTRICITY":"0.00011920","EPOCH":"2021-09-19T17:08:37.739616","PERIOD":"95.592","TIME_SYSTEM":"UTC","APOAPSIS":"548.049","MEAN_MOTION_DOT":"0.00001734","REF_FRAME":"TEME","FILE":"3120378","LAUNCH_DATE":"2021-03-11","TLE_LINE1":"1 47845U 21018BL  21262.71432569  .00001734  00000-0  13530-3 0  9990","COUNTRY_CODE":"US","EPHEMERIS_TYPE":"0","REV_AT_EPOCH":"3062","CLASSIFICATION_TYPE":"U","OBJECT_ID":"2021-018BL","PERIAPSIS":"546.398","RCS_SIZE":"LARGE","TLE_LINE2":"2 47845  53.0563  17.8478 0001192 128.4325 231.6771 15.06396841 30626","SEMIMAJOR_AXIS":"6925.358","SITE":"AFETR","BSTAR":"0.00013530000000","RA_OF_ASC_NODE":"17.8478","OBJECT_NAME":"STARLINK-2453","MEAN_ANOMALY":"231.6771","DECAY_DATE":null,"MEAN_MOTION_DDOT":"0.0000000000000","GP_ID":"185057133","NORAD_CAT_ID":"47845","OBJECT_TYPE":"PAYLOAD"}];
